TEVEL2-1                
1 63217U 25052H   26068.64782323  .00020683  00000+0  70600-3 0  9994
2 63217  97.3991 324.7682 0004767 104.8919 255.2849 15.30341923 54855
STARLINK-34502          
1 64680U 25139S   26068.53702316  .00023331  00000+0  79722-3 0  9994
2 64680  53.1590 127.5402 0001367  86.7466 273.3692 15.30205846 40262
